SL-16 R/B               
1 25400U 98043G   25353.88500593  .00000022  00000+0  27981-4 0  9995
2 25400  98.8135 301.7433 0008843 243.5180 116.5093 14.26027115427618
SL-16 R/B               
1 25407U 98045B   25354.39317263  .00000154  00000+0  10183-3 0  9992
2 25407  71.0115 348.3313 0006513 164.2066 195.9261 14.16175206415871
ISS (ZARYA)             
1 25544U 98067A   25354.27981747  .00007139  00000+0  13442-3 0  9990
2 25544  51.6320 105.1395 0003193 275.4219  84.6406 15.49680920544026
CZ-4B R/B               
1 25732U 99025C   25354.08490194  .00000065  00000+0  52350-4 0  9997
2 25732  98.6757  35.2004 0036586 212.4681 201.3813 14.18245398376884
OKEAN-O                 
1 25860U 99039A   25354.15808035  .00000536  00000+0  77424-4 0  9991
2 25860  97.9592  49.7953 0000984 111.0136 249.1182 14.80173348422627
SL-16 R/B               
1 25861U 99039B   25354.07850972  .00000429  00000+0  61445-4 0  9997
2 25861  98.0116  48.2300 0015481 151.4280 208.7784 14.81596225425073
DELTA 2 R/B             
1 25876U 99041E   25354.14862415  .00000611  00000+0  13853-3 0  9991
2 25876  51.7610 258.8703 0504549 113.6019 251.8720 14.11419252351791
HELIOS 1B               
1 25977U 99064A   25354.27122118  .00001271  00000+0  14731-3 0  9990
2 25977  98.1757 249.1602 0001272  33.9020 326.2277 14.87309155673459
TERRA                   
1 25994U 99068A   25354.48367424  .00000329  00000+0  76371-4 0  9999
2 25994  97.9737  45.8836 0003540  79.2014  34.4687 14.60909855383511
SL-16 R/B               
1 26070U 00006B   25354.17601967 -.00000151  00000+0 -52385-4 0  9992
2 26070  71.0019 265.0222 0018578 298.5583  61.3670 14.15808455337303
TITAN 4B R/B            
1 26474U 00047B   25354.23392623  .00002452  00000+0  16140-3 0  9990
2 26474  67.9898 263.8070 0038397 135.5924 224.8315 15.08831592380926
ENVISAT                 
1 27386U 02009A   25352.94754304  .00000081  00000+0  39999-4 0  9991
2 27386  98.3609 303.5309 0001126  84.8976 298.2993 14.39001403247569
