CCSDS_OMM_VERS = 2.0
CREATION_DATE  = 
ORIGINATOR     = 

OBJECT_NAME    = SL-16 R/B
OBJECT_ID      = 1998-043G
CENTER_NAME    = EARTH
REF_FRAME      = TEME
TIME_SYSTEM    = UTC
MEAN_ELEMENT_THEORY = SGP/SGP4

EPOCH          = 2025-12-19T21:14:24.512352
MEAN_MOTION    = 14.26027115
ECCENTRICITY   = .0008843
INCLINATION    = 98.8135
RA_OF_ASC_NODE = 301.7433
ARG_OF_PERICENTER = 243.5180
MEAN_ANOMALY   = 116.5093

EPHEMERIS_TYPE = 0
CLASSIFICATION_TYPE = U
NORAD_CAT_ID   = 25400
ELEMENT_SET_NO = 999
REV_AT_EPOCH   = 42761
BSTAR          = .27981E-4
MEAN_MOTION_DOT = .22E-6
MEAN_MOTION_DDOT = 0

CCSDS_OMM_VERS = 2.0
CREATION_DATE  = 
ORIGINATOR     = 

OBJECT_NAME    = SL-16 R/B
OBJECT_ID      = 1998-045B
CENTER_NAME    = EARTH
REF_FRAME      = TEME
TIME_SYSTEM    = UTC
MEAN_ELEMENT_THEORY = SGP/SGP4

EPOCH          = 2025-12-20T09:26:10.115232
MEAN_MOTION    = 14.16175206
ECCENTRICITY   = .0006513
INCLINATION    = 71.0115
RA_OF_ASC_NODE = 348.3313
ARG_OF_PERICENTER = 164.2066
MEAN_ANOMALY   = 195.9261

EPHEMERIS_TYPE = 0
CLASSIFICATION_TYPE = U
NORAD_CAT_ID   = 25407
ELEMENT_SET_NO = 999
REV_AT_EPOCH   = 41587
BSTAR          = .10183E-3
MEAN_MOTION_DOT = .154E-5
MEAN_MOTION_DDOT = 0

CCSDS_OMM_VERS = 2.0
CREATION_DATE  = 
ORIGINATOR     = 

OBJECT_NAME    = ISS (ZARYA)
OBJECT_ID      = 1998-067A
CENTER_NAME    = EARTH
REF_FRAME      = TEME
TIME_SYSTEM    = UTC
MEAN_ELEMENT_THEORY = SGP/SGP4

EPOCH          = 2025-12-20T06:42:56.229408
MEAN_MOTION    = 15.49680920
ECCENTRICITY   = .0003193
INCLINATION    = 51.6320
RA_OF_ASC_NODE = 105.1395
ARG_OF_PERICENTER = 275.4219
MEAN_ANOMALY   = 84.6406

EPHEMERIS_TYPE = 0
CLASSIFICATION_TYPE = U
NORAD_CAT_ID   = 25544
ELEMENT_SET_NO = 999
REV_AT_EPOCH   = 54402
BSTAR          = .13442E-3
MEAN_MOTION_DOT = .7139E-4
MEAN_MOTION_DDOT = 0

CCSDS_OMM_VERS = 2.0
CREATION_DATE  = 
ORIGINATOR     = 

OBJECT_NAME    = CZ-4B R/B
OBJECT_ID      = 1999-025C
CENTER_NAME    = EARTH
REF_FRAME      = TEME
TIME_SYSTEM    = UTC
MEAN_ELEMENT_THEORY = SGP/SGP4

EPOCH          = 2025-12-20T02:02:15.527616
MEAN_MOTION    = 14.18245398
ECCENTRICITY   = .00365865
INCLINATION    = 98.6757
RA_OF_ASC_NODE = 35.2004
ARG_OF_PERICENTER = 212.4681
MEAN_ANOMALY   = 201.3813

EPHEMERIS_TYPE = 0
CLASSIFICATION_TYPE = U
NORAD_CAT_ID   = 25732
ELEMENT_SET_NO = 999
REV_AT_EPOCH   = 37688
BSTAR          = .5235036E-4
MEAN_MOTION_DOT = .65E-6
MEAN_MOTION_DDOT = 0

CCSDS_OMM_VERS = 2.0
CREATION_DATE  = 
ORIGINATOR     = 

OBJECT_NAME    = OKEAN-O
OBJECT_ID      = 1999-039A
CENTER_NAME    = EARTH
REF_FRAME      = TEME
TIME_SYSTEM    = UTC
MEAN_ELEMENT_THEORY = SGP/SGP4

EPOCH          = 2025-12-20T03:47:38.142240
MEAN_MOTION    = 14.80173348
ECCENTRICITY   = .00009846
INCLINATION    = 97.9592
RA_OF_ASC_NODE = 49.7953
ARG_OF_PERICENTER = 111.0136
MEAN_ANOMALY   = 249.1182

EPHEMERIS_TYPE = 0
CLASSIFICATION_TYPE = U
NORAD_CAT_ID   = 25860
ELEMENT_SET_NO = 999
REV_AT_EPOCH   = 42262
BSTAR          = .77424112E-4
MEAN_MOTION_DOT = .536E-5
MEAN_MOTION_DDOT = 0

CCSDS_OMM_VERS = 2.0
CREATION_DATE  = 
ORIGINATOR     = 

OBJECT_NAME    = SL-16 R/B
OBJECT_ID      = 1999-039B
CENTER_NAME    = EARTH
REF_FRAME      = TEME
TIME_SYSTEM    = UTC
MEAN_ELEMENT_THEORY = SGP/SGP4

EPOCH          = 2025-12-20T01:53:03.239808
MEAN_MOTION    = 14.81596225
ECCENTRICITY   = .00154816
INCLINATION    = 98.0116
RA_OF_ASC_NODE = 48.2300
ARG_OF_PERICENTER = 151.4280
MEAN_ANOMALY   = 208.7784

EPHEMERIS_TYPE = 0
CLASSIFICATION_TYPE = U
NORAD_CAT_ID   = 25861
ELEMENT_SET_NO = 999
REV_AT_EPOCH   = 42507
BSTAR          = .61444824E-4
MEAN_MOTION_DOT = .429E-5
MEAN_MOTION_DDOT = 0

CCSDS_OMM_VERS = 2.0
CREATION_DATE  = 
ORIGINATOR     = 

OBJECT_NAME    = DELTA 2 R/B
OBJECT_ID      = 1999-041E
CENTER_NAME    = EARTH
REF_FRAME      = TEME
TIME_SYSTEM    = UTC
MEAN_ELEMENT_THEORY = SGP/SGP4

EPOCH          = 2025-12-20T03:34:01.126560
MEAN_MOTION    = 14.11419252
ECCENTRICITY   = .05045497
INCLINATION    = 51.7610
RA_OF_ASC_NODE = 258.8703
ARG_OF_PERICENTER = 113.6019
MEAN_ANOMALY   = 251.8720

EPHEMERIS_TYPE = 0
CLASSIFICATION_TYPE = U
NORAD_CAT_ID   = 25876
ELEMENT_SET_NO = 999
REV_AT_EPOCH   = 35179
BSTAR          = .13853003E-3
MEAN_MOTION_DOT = .611E-5
MEAN_MOTION_DDOT = 0

CCSDS_OMM_VERS = 2.0
CREATION_DATE  = 
ORIGINATOR     = 

OBJECT_NAME    = HELIOS 1B
OBJECT_ID      = 1999-064A
CENTER_NAME    = EARTH
REF_FRAME      = TEME
TIME_SYSTEM    = UTC
MEAN_ELEMENT_THEORY = SGP/SGP4

EPOCH          = 2025-12-20T06:30:33.509952
MEAN_MOTION    = 14.87309155
ECCENTRICITY   = .0001272
INCLINATION    = 98.1757
RA_OF_ASC_NODE = 249.1602
ARG_OF_PERICENTER = 33.9020
MEAN_ANOMALY   = 326.2277

EPHEMERIS_TYPE = 0
CLASSIFICATION_TYPE = U
NORAD_CAT_ID   = 25977
ELEMENT_SET_NO = 999
REV_AT_EPOCH   = 67345
BSTAR          = .14731E-3
MEAN_MOTION_DOT = .1271E-4
MEAN_MOTION_DDOT = 0

CCSDS_OMM_VERS = 2.0
CREATION_DATE  = 
ORIGINATOR     = 

OBJECT_NAME    = TERRA
OBJECT_ID      = 1999-068A
CENTER_NAME    = EARTH
REF_FRAME      = TEME
TIME_SYSTEM    = UTC
MEAN_ELEMENT_THEORY = SGP/SGP4

EPOCH          = 2025-12-20T11:36:29.454336
MEAN_MOTION    = 14.60909855
ECCENTRICITY   = .000354
INCLINATION    = 97.9737
RA_OF_ASC_NODE = 45.8836
ARG_OF_PERICENTER = 79.2014
MEAN_ANOMALY   = 34.4687

EPHEMERIS_TYPE = 0
CLASSIFICATION_TYPE = U
NORAD_CAT_ID   = 25994
ELEMENT_SET_NO = 999
REV_AT_EPOCH   = 38351
BSTAR          = .76371E-4
MEAN_MOTION_DOT = .329E-5
MEAN_MOTION_DDOT = 0

CCSDS_OMM_VERS = 2.0
CREATION_DATE  = 
ORIGINATOR     = 

OBJECT_NAME    = SL-16 R/B
OBJECT_ID      = 2000-006B
CENTER_NAME    = EARTH
REF_FRAME      = TEME
TIME_SYSTEM    = UTC
MEAN_ELEMENT_THEORY = SGP/SGP4

EPOCH          = 2025-12-20T04:13:28.099488
MEAN_MOTION    = 14.15808455
ECCENTRICITY   = .00185782
INCLINATION    = 71.0019
RA_OF_ASC_NODE = 265.0222
ARG_OF_PERICENTER = 298.5583
MEAN_ANOMALY   = 61.3670

EPHEMERIS_TYPE = 0
CLASSIFICATION_TYPE = U
NORAD_CAT_ID   = 26070
ELEMENT_SET_NO = 999
REV_AT_EPOCH   = 33730
BSTAR          = -.52385212E-4
MEAN_MOTION_DOT = -.151E-5
MEAN_MOTION_DDOT = 0

CCSDS_OMM_VERS = 2.0
CREATION_DATE  = 
ORIGINATOR     = 

OBJECT_NAME    = TITAN 4B R/B
OBJECT_ID      = 2000-047B
CENTER_NAME    = EARTH
REF_FRAME      = TEME
TIME_SYSTEM    = UTC
MEAN_ELEMENT_THEORY = SGP/SGP4

EPOCH          = 2025-12-20T05:36:51.226272
MEAN_MOTION    = 15.08831592
ECCENTRICITY   = .0038397
INCLINATION    = 67.9898
RA_OF_ASC_NODE = 263.8070
ARG_OF_PERICENTER = 135.5924
MEAN_ANOMALY   = 224.8315

EPHEMERIS_TYPE = 0
CLASSIFICATION_TYPE = U
NORAD_CAT_ID   = 26474
ELEMENT_SET_NO = 999
REV_AT_EPOCH   = 38092
BSTAR          = .1614E-3
MEAN_MOTION_DOT = .2452E-4
MEAN_MOTION_DDOT = 0

CCSDS_OMM_VERS = 2.0
CREATION_DATE  = 
ORIGINATOR     = 

OBJECT_NAME    = ENVISAT
OBJECT_ID      = 2002-009A
CENTER_NAME    = EARTH
REF_FRAME      = TEME
TIME_SYSTEM    = UTC
MEAN_ELEMENT_THEORY = SGP/SGP4

EPOCH          = 2025-12-18T22:44:27.718656
MEAN_MOTION    = 14.39001403
ECCENTRICITY   = .0001126
INCLINATION    = 98.3609
RA_OF_ASC_NODE = 303.5309
ARG_OF_PERICENTER = 84.8976
MEAN_ANOMALY   = 298.2993

EPHEMERIS_TYPE = 0
CLASSIFICATION_TYPE = U
NORAD_CAT_ID   = 27386
ELEMENT_SET_NO = 999
REV_AT_EPOCH   = 24756
BSTAR          = .39999337E-4
MEAN_MOTION_DOT = .81E-6
MEAN_MOTION_DDOT = 0

